[{"OBJECT_NAME":"OBJECT B","OBJECT_ID":"2024-205B","EPOCH":"2026-03-09T23:46:05.115936","MEAN_MOTION":15.28158697,"ECCENTRICITY":0.00105957,"INCLINATION":97.4192,"RA_OF_ASC_NODE":146.9311,"ARG_OF_PERICENTER":34.0947,"MEAN_ANOMALY":326.0972,"EPHEMERIS_TYPE":0,"CLASSIFICATION_TYPE":"U","NORAD_CAT_ID":61895,"ELEMENT_SET_NO":999,"REV_AT_EPOCH":7352,"BSTAR":0.00054154807,"MEAN_MOTION_DOT":0.00014827,"MEAN_MOTION_DDOT":0},{"OBJECT_NAME":"STARLINK-34769","OBJECT_ID":"2025-167S","EPOCH":"2026-03-09T06:25:26.868576","MEAN_MOTION":15.30202216,"ECCENTRICITY":0.00011525,"INCLINATION":53.1615,"RA_OF_ASC_NODE":28.7328,"ARG_OF_PERICENTER":76.7668,"MEAN_ANOMALY":283.3461,"EPHEMERIS_TYPE":0,"CLASSIFICATION_TYPE":"U","NORAD_CAT_ID":65094,"ELEMENT_SET_NO":999,"REV_AT_EPOCH":3341,"BSTAR":0.00067167369,"MEAN_MOTION_DOT":0.00019588,"MEAN_MOTION_DDOT":0}]
